SHIJIAN-28 (SJ-28)      
1 66549U 25277A   25362.36448706 -.00000334  00000+0  00000+0 0  9998
2 66549   4.9798 274.7125 0000517 161.4101 268.9278  1.00273770   441
CZ-7A R/B               
1 66550U 25277B   25360.17323146  .04976202 -21169-6  31720-2 0  9999
2 66550  14.3386 261.8830 6428177 204.1589 102.8537  3.54037207   761
USA 568                 
1 66551U 24134K   25336.66670139 -.01709685  00000+0 -74303-2 0  9990
2 66551  53.1571 236.7807 0000717 110.7411 313.9012 15.87051116  2624
GLOBAL-33               
1 66554U 25267A   25362.18291678  .00018220  00000+0  58615-3 0  9998
2 66554  42.0214 327.8315 0005369 197.9577 162.1071 15.31858047  5777
STARLINK-35699          
1 66557U 25268A   25362.50002315  .00077839  00000+0  28132-2 0  9997
2 66557  43.0009  29.5338 0001388 279.4821 213.1153 15.27523752  5987
STARLINK-35695          
1 66558U 25268B   25362.50002315  .00084327  00000+0  30438-2 0  9990
2 66558  43.0011  29.4824 0001672 281.8826 231.9380 15.27528731  5980
STARLINK-35419          
1 66559U 25268C   25362.50002315 -.02029771  00000+0 -72812-1 0  9998
2 66559  43.0005  29.2087 0000864 288.1203 340.4390 15.31300194  6034
STARLINK-35411          
1 66560U 25268D   25362.50002315 -.01930475  00000+0 -69067-1 0  9999
2 66560  43.0009  29.1785 0000998 273.1667   7.8591 15.31784715  6032
STARLINK-35305          
1 66561U 25268E   25362.50002315 -.01955005  00000+0 -66400-1 0  9994
2 66561  43.0002  29.0910 0001068 267.1527  49.5112 15.33469440  6086
STARLINK-35579          
1 66562U 25268F   25362.50002315 -.01941499  00000+0 -67681-1 0  9999
2 66562  42.9999  29.1335 0000925 281.5710  17.5553 15.32626488  6032
STARLINK-35437          
1 66563U 25268G   25362.50002315 -.02022271  00000+0 -65875-1 0  9992
2 66563  43.0004  29.0494 0001233 263.1484  70.4883 15.34320019  6031
STARLINK-35358          
1 66564U 25268H   25362.50002315 -.01987411  00000+0 -64082-1 0  9997
2 66564  43.0002  29.0092 0001431 264.4275  85.6383 15.35147146  6038
