CCSDS_OMM_VERS = 2.0
CREATION_DATE  = 
ORIGINATOR     = 

OBJECT_NAME    = SHIJIAN-28 (SJ-28)
OBJECT_ID      = 2025-277A
CENTER_NAME    = EARTH
REF_FRAME      = TEME
TIME_SYSTEM    = UTC
MEAN_ELEMENT_THEORY = SGP/SGP4

EPOCH          = 2025-12-28T08:44:51.681984
MEAN_MOTION    = 1.00273770
ECCENTRICITY   = .0000517
INCLINATION    = 4.9798
RA_OF_ASC_NODE = 274.7125
ARG_OF_PERICENTER = 161.4101
MEAN_ANOMALY   = 268.9278

EPHEMERIS_TYPE = 0
CLASSIFICATION_TYPE = U
NORAD_CAT_ID   = 66549
ELEMENT_SET_NO = 999
REV_AT_EPOCH   = 44
BSTAR          = 0
MEAN_MOTION_DOT = -.334E-5
MEAN_MOTION_DDOT = 0

CCSDS_OMM_VERS = 2.0
CREATION_DATE  = 
ORIGINATOR     = 

OBJECT_NAME    = CZ-7A R/B
OBJECT_ID      = 2025-277B
CENTER_NAME    = EARTH
REF_FRAME      = TEME
TIME_SYSTEM    = UTC
MEAN_ELEMENT_THEORY = SGP/SGP4

EPOCH          = 2025-12-26T04:09:27.198144
MEAN_MOTION    = 3.54037207
ECCENTRICITY   = .6428177
INCLINATION    = 14.3386
RA_OF_ASC_NODE = 261.8830
ARG_OF_PERICENTER = 204.1589
MEAN_ANOMALY   = 102.8537

EPHEMERIS_TYPE = 0
CLASSIFICATION_TYPE = U
NORAD_CAT_ID   = 66550
ELEMENT_SET_NO = 999
REV_AT_EPOCH   = 76
BSTAR          = .3172E-2
MEAN_MOTION_DOT = .4976202E-1
MEAN_MOTION_DDOT = -.21169E-6

CCSDS_OMM_VERS = 2.0
CREATION_DATE  = 
ORIGINATOR     = 

OBJECT_NAME    = USA 568
OBJECT_ID      = 2024-134K
CENTER_NAME    = EARTH
REF_FRAME      = TEME
TIME_SYSTEM    = UTC
MEAN_ELEMENT_THEORY = SGP/SGP4

EPOCH          = 2025-12-02T16:00:03.000096
MEAN_MOTION    = 15.87051116
ECCENTRICITY   = .0000717
INCLINATION    = 53.1571
RA_OF_ASC_NODE = 236.7807
ARG_OF_PERICENTER = 110.7411
MEAN_ANOMALY   = 313.9012

EPHEMERIS_TYPE = 0
CLASSIFICATION_TYPE = U
NORAD_CAT_ID   = 66551
ELEMENT_SET_NO = 999
REV_AT_EPOCH   = 262
BSTAR          = -.74303E-2
MEAN_MOTION_DOT = -.1709685E-1
MEAN_MOTION_DDOT = 0

CCSDS_OMM_VERS = 2.0
CREATION_DATE  = 
ORIGINATOR     = 

OBJECT_NAME    = GLOBAL-33
OBJECT_ID      = 2025-267A
CENTER_NAME    = EARTH
REF_FRAME      = TEME
TIME_SYSTEM    = UTC
MEAN_ELEMENT_THEORY = SGP/SGP4

EPOCH          = 2025-12-28T04:23:24.009792
MEAN_MOTION    = 15.31858047
ECCENTRICITY   = .00053693
INCLINATION    = 42.0214
RA_OF_ASC_NODE = 327.8315
ARG_OF_PERICENTER = 197.9577
MEAN_ANOMALY   = 162.1071

EPHEMERIS_TYPE = 0
CLASSIFICATION_TYPE = U
NORAD_CAT_ID   = 66554
ELEMENT_SET_NO = 999
REV_AT_EPOCH   = 577
BSTAR          = .58614931E-3
MEAN_MOTION_DOT = .1822E-3
MEAN_MOTION_DDOT = 0

CCSDS_OMM_VERS = 2.0
CREATION_DATE  = 
ORIGINATOR     = 

OBJECT_NAME    = STARLINK-35699
OBJECT_ID      = 2025-268A
CENTER_NAME    = EARTH
REF_FRAME      = TEME
TIME_SYSTEM    = UTC
MEAN_ELEMENT_THEORY = SGP/SGP4

EPOCH          = 2025-12-28T12:00:02.000160
MEAN_MOTION    = 15.27523752
ECCENTRICITY   = .0001388
INCLINATION    = 43.0009
RA_OF_ASC_NODE = 29.5338
ARG_OF_PERICENTER = 279.4821
MEAN_ANOMALY   = 213.1153

EPHEMERIS_TYPE = 0
CLASSIFICATION_TYPE = U
NORAD_CAT_ID   = 66557
ELEMENT_SET_NO = 999
REV_AT_EPOCH   = 598
BSTAR          = .28132E-2
MEAN_MOTION_DOT = .77839E-3
MEAN_MOTION_DDOT = 0

CCSDS_OMM_VERS = 2.0
CREATION_DATE  = 
ORIGINATOR     = 

OBJECT_NAME    = STARLINK-35695
OBJECT_ID      = 2025-268B
CENTER_NAME    = EARTH
REF_FRAME      = TEME
TIME_SYSTEM    = UTC
MEAN_ELEMENT_THEORY = SGP/SGP4

EPOCH          = 2025-12-28T12:00:02.000160
MEAN_MOTION    = 15.27528731
ECCENTRICITY   = .0001672
INCLINATION    = 43.0011
RA_OF_ASC_NODE = 29.4824
ARG_OF_PERICENTER = 281.8826
MEAN_ANOMALY   = 231.9380

EPHEMERIS_TYPE = 0
CLASSIFICATION_TYPE = U
NORAD_CAT_ID   = 66558
ELEMENT_SET_NO = 999
REV_AT_EPOCH   = 598
BSTAR          = .30438E-2
MEAN_MOTION_DOT = .84327E-3
MEAN_MOTION_DDOT = 0

CCSDS_OMM_VERS = 2.0
CREATION_DATE  = 
ORIGINATOR     = 

OBJECT_NAME    = STARLINK-35419
OBJECT_ID      = 2025-268C
CENTER_NAME    = EARTH
REF_FRAME      = TEME
TIME_SYSTEM    = UTC
MEAN_ELEMENT_THEORY = SGP/SGP4

EPOCH          = 2025-12-28T12:00:02.000160
MEAN_MOTION    = 15.31300194
ECCENTRICITY   = .0000864
INCLINATION    = 43.0005
RA_OF_ASC_NODE = 29.2087
ARG_OF_PERICENTER = 288.1203
MEAN_ANOMALY   = 340.4390

EPHEMERIS_TYPE = 0
CLASSIFICATION_TYPE = U
NORAD_CAT_ID   = 66559
ELEMENT_SET_NO = 999
REV_AT_EPOCH   = 603
BSTAR          = -.72812E-1
MEAN_MOTION_DOT = -.2029771E-1
MEAN_MOTION_DDOT = 0

CCSDS_OMM_VERS = 2.0
CREATION_DATE  = 
ORIGINATOR     = 

OBJECT_NAME    = STARLINK-35411
OBJECT_ID      = 2025-268D
CENTER_NAME    = EARTH
REF_FRAME      = TEME
TIME_SYSTEM    = UTC
MEAN_ELEMENT_THEORY = SGP/SGP4

EPOCH          = 2025-12-28T12:00:02.000160
MEAN_MOTION    = 15.31784715
ECCENTRICITY   = .0000998
INCLINATION    = 43.0009
RA_OF_ASC_NODE = 29.1785
ARG_OF_PERICENTER = 273.1667
MEAN_ANOMALY   = 7.8591

EPHEMERIS_TYPE = 0
CLASSIFICATION_TYPE = U
NORAD_CAT_ID   = 66560
ELEMENT_SET_NO = 999
REV_AT_EPOCH   = 603
BSTAR          = -.69067E-1
MEAN_MOTION_DOT = -.1930475E-1
MEAN_MOTION_DDOT = 0

CCSDS_OMM_VERS = 2.0
CREATION_DATE  = 
ORIGINATOR     = 

OBJECT_NAME    = STARLINK-35305
OBJECT_ID      = 2025-268E
CENTER_NAME    = EARTH
REF_FRAME      = TEME
TIME_SYSTEM    = UTC
MEAN_ELEMENT_THEORY = SGP/SGP4

EPOCH          = 2025-12-28T12:00:02.000160
MEAN_MOTION    = 15.33469440
ECCENTRICITY   = .0001068
INCLINATION    = 43.0002
RA_OF_ASC_NODE = 29.0910
ARG_OF_PERICENTER = 267.1527
MEAN_ANOMALY   = 49.5112

EPHEMERIS_TYPE = 0
CLASSIFICATION_TYPE = U
NORAD_CAT_ID   = 66561
ELEMENT_SET_NO = 999
REV_AT_EPOCH   = 608
BSTAR          = -.664E-1
MEAN_MOTION_DOT = -.1955005E-1
MEAN_MOTION_DDOT = 0

CCSDS_OMM_VERS = 2.0
CREATION_DATE  = 
ORIGINATOR     = 

OBJECT_NAME    = STARLINK-35579
OBJECT_ID      = 2025-268F
CENTER_NAME    = EARTH
REF_FRAME      = TEME
TIME_SYSTEM    = UTC
MEAN_ELEMENT_THEORY = SGP/SGP4

EPOCH          = 2025-12-28T12:00:02.000160
MEAN_MOTION    = 15.32626488
ECCENTRICITY   = .0000925
INCLINATION    = 42.9999
RA_OF_ASC_NODE = 29.1335
ARG_OF_PERICENTER = 281.5710
MEAN_ANOMALY   = 17.5553

EPHEMERIS_TYPE = 0
CLASSIFICATION_TYPE = U
NORAD_CAT_ID   = 66562
ELEMENT_SET_NO = 999
REV_AT_EPOCH   = 603
BSTAR          = -.67681E-1
MEAN_MOTION_DOT = -.1941499E-1
MEAN_MOTION_DDOT = 0

CCSDS_OMM_VERS = 2.0
CREATION_DATE  = 
ORIGINATOR     = 

OBJECT_NAME    = STARLINK-35437
OBJECT_ID      = 2025-268G
CENTER_NAME    = EARTH
REF_FRAME      = TEME
TIME_SYSTEM    = UTC
MEAN_ELEMENT_THEORY = SGP/SGP4

EPOCH          = 2025-12-28T12:00:02.000160
MEAN_MOTION    = 15.34320019
ECCENTRICITY   = .0001233
INCLINATION    = 43.0004
RA_OF_ASC_NODE = 29.0494
ARG_OF_PERICENTER = 263.1484
MEAN_ANOMALY   = 70.4883

EPHEMERIS_TYPE = 0
CLASSIFICATION_TYPE = U
NORAD_CAT_ID   = 66563
ELEMENT_SET_NO = 999
REV_AT_EPOCH   = 603
BSTAR          = -.65875E-1
MEAN_MOTION_DOT = -.2022271E-1
MEAN_MOTION_DDOT = 0

CCSDS_OMM_VERS = 2.0
CREATION_DATE  = 
ORIGINATOR     = 

OBJECT_NAME    = STARLINK-35358
OBJECT_ID      = 2025-268H
CENTER_NAME    = EARTH
REF_FRAME      = TEME
TIME_SYSTEM    = UTC
MEAN_ELEMENT_THEORY = SGP/SGP4

EPOCH          = 2025-12-28T12:00:02.000160
MEAN_MOTION    = 15.35147146
ECCENTRICITY   = .0001431
INCLINATION    = 43.0002
RA_OF_ASC_NODE = 29.0092
ARG_OF_PERICENTER = 264.4275
MEAN_ANOMALY   = 85.6383

EPHEMERIS_TYPE = 0
CLASSIFICATION_TYPE = U
NORAD_CAT_ID   = 66564
ELEMENT_SET_NO = 999
REV_AT_EPOCH   = 603
BSTAR          = -.64082E-1
MEAN_MOTION_DOT = -.1987411E-1
MEAN_MOTION_DDOT = 0

